ORBCOMM-X [-]           
1 21576U 91050C   23290.03278043  .00000701  00000+0  22597-3 0  9994
2 21576  98.4227 355.8486 0003022 208.8360 151.2663 14.42214792694287
ORBCOMM FM01 [-]        
1 23545U 95017A   23290.86860262  .00006261  00000+0  90002-3 0  9993
2 23545  69.9667 133.6855 0005188 192.1102 167.9921 14.76854454522689
ORBCOMM FM02 [-]        
1 23546U 95017B   23290.02669630  .00007190  00000+0  10427-2 0  9992
2 23546  69.9691 154.7896 0006660 177.3848 182.7336 14.76396437521860
ORBCOMM FM08 [-]        
1 25112U 97084A   23291.03843827  .00002582  00000+0  83263-3 0  9992
2 25112  45.0161  36.2711 0005826  64.2897 295.8554 14.41406935353676
ORBCOMM FM10 [-]        
1 25113U 97084B   23289.71822077  .00003052  00000+0  97749-3 0  9996
2 25113  45.0170  44.2830 0003568  17.6917 342.4056 14.41342238528466
ORBCOMM FM11 [+]        
1 25114U 97084C   23289.37392130  .00003052  00000+0  97974-3 0  9991
2 25114  45.0153  45.8359 0004327  17.1756 342.9239 14.41227203353380
ORBCOMM FM12 [-]        
1 25115U 97084D   23290.57785847  .00002829  00000+0  91166-3 0  9995
2 25115  45.0166  39.7419 0003237  23.8160 336.2839 14.41221697353356
ORBCOMM FM09 [-]        
1 25116U 97084E   23290.72337601  .00002548  00000+0  82595-3 0  9998
2 25116  45.0169  39.6810 0004637   5.3175 354.7724 14.41201313353610
